NORAD_CAT_ID,OBJECT_NAME,OBJECT_TYPE,EPOCH,MEAN_MOTION,ECCENTRICITY,INCLINATION,RA_OF_ASC_NODE,ARG_OF_PERICENTER,MEAN_ANOMALY,BSTAR,MEAN_MOTION_DOT,MEAN_MOTION_DDOT,TLE_LINE0,TLE_LINE1,TLE_LINE2,SEMIMAJOR_AXIS,PERIOD,APOGEE,PERIGEE,DECAYED
54052.0,STARLINK-5189,PAYLOAD,2023-02-28 18:00:00,15.18009799,0.0001378,53.2157,224.3155,72.0583,71.4292,-0.047463,-0.009061,0.0,0 STARLINK-5189,1 54052U 22136B   23059.75001157 -.00906100  00000-0 -47463-1 0  9998,2 54052  53.2157 224.3155 0001378  72.0583  71.4292 15.18009799 21082,6889.993,94.861,512.808,510.909,0.0
54052.0,STARLINK-5189,PAYLOAD,2023-02-28 22:00:00,15.17681501,0.0001169,53.2157,223.5572,70.6024,264.0966,-0.046878,-0.0088782,0.0,0 STARLINK-5189,1 54052U 22136B   23059.91667824 -.00887820  00000-0 -46878-1 0  9991,2 54052  53.2157 223.5572 0001169  70.6024 264.0966 15.17681501  1305,6890.987,94.882,513.657,512.046,0.0
54052.0,STARLINK-5189,PAYLOAD,2023-03-01 14:00:01,15.16413268,0.0001198,53.2161,220.5252,76.7662,300.8255,-0.052613,-0.00955208,0.0,0 STARLINK-5189,1 54052U 22136B   23060.58334491 -.00955208  00000-0 -52613-1 0  9997,2 54052  53.2161 220.5252 0001198  76.7662 300.8255 15.16413268 21202,6894.828,94.961,517.519,515.867,0.0
54052.0,STARLINK-5189,PAYLOAD,2023-03-02 00:00:00,15.15599896,0.0001317,53.2159,218.6347,72.1027,60.7084,-0.053426,-0.00948219,0.0,0 STARLINK-5189,1 54052U 22136B   23061.00001157 -.00948219  00000-0 -53426-1 0  9992,2 54052  53.2159 218.6347 0001317  72.1027  60.7084 15.15599896  1302,6897.295,95.012,520.068,518.252,0.0
54052.0,STARLINK-5189,PAYLOAD,2023-03-02 06:00:00,15.15068985,0.0001098,53.2163,217.4997,85.2996,332.0758,-0.050096,-0.0088078,0.0,0 STARLINK-5189,1 54052U 22136B   23061.25001157 -.00880780  00000-0 -50096-1 0  9997,2 54052  53.2163 217.4997 0001098  85.2996 332.0758 15.15068985 21306,6898.906,95.045,521.529,520.014,0.0
54052.0,STARLINK-5189,PAYLOAD,2023-03-02 20:00:01,15.13928999,0.0001194,53.2165,214.8599,78.3384,281.2665,-0.051373,-0.00874922,0.0,0 STARLINK-5189,1 54052U 22136B   23061.83334491 -.00874922  00000-0 -51373-1 0  9991,2 54052  53.2165 214.8599 0001194  78.3384 281.2665 15.13928999  1306,6902.369,95.117,525.058,523.41,0.0
54052.0,STARLINK-5189,PAYLOAD,2023-03-03 14:00:01,15.12499861,0.0001338,53.2168,211.4692,79.9633,47.5559,-0.058176,-0.00945903,0.0,0 STARLINK-5189,1 54052U 22136B   23062.58334491 -.00945903  00000-0 -58176-1 0  9990,2 54052  53.2168 211.4692 0001338  79.9633  47.5559 15.12499861 21510,6906.716,95.207,529.505,527.657,0.0
54052.0,STARLINK-5189,PAYLOAD,2023-03-03 22:00:00,15.1184193,0.0001383,53.2166,209.9658,72.1842,70.9147,-0.057616,-0.00921606,0.0,0 STARLINK-5189,1 54052U 22136B   23062.91667824 -.00921606  00000-0 -57616-1 0  9998,2 54052  53.2166 209.9658 0001383  72.1842  70.9147 15.11841930  1304,6908.72,95.248,531.54,529.629,0.0
54052.0,STARLINK-5189,PAYLOAD,2023-03-04 10:00:01,15.10869901,0.0001234,53.2173,207.7109,89.3568,255.7117,-0.059417,-0.00924706,0.0,0 STARLINK-5189,1 54052U 22136B   23063.41668981 -.00924706  00000-0 -59417-1 0  9994,2 54052  53.2173 207.7109 0001234  89.3568 255.7117 15.10869901 21634,6911.683,95.309,534.401,532.695,0.0
54052.0,STARLINK-5189,PAYLOAD,2023-03-04 14:00:01,15.105418,0.0001418,53.2172,206.9616,80.511,91.4114,-0.060929,-0.0093853,0.0,0 STARLINK-5189,1 54052U 22136B   23063.58334491 -.00938530  00000-0 -60929-1 0  9998,2 54052  53.2172 206.9616 0001418  80.5110  91.4114 15.10541800  1306,6912.684,95.33,535.529,533.568,0.0
54052.0,STARLINK-5189,PAYLOAD,2023-03-04 22:00:00,15.09898911,0.0001472,53.2169,205.4627,75.3155,109.8354,-0.062001,-0.00938195,0.0,0 STARLINK-5189,1 54052U 22136B   23063.91667824 -.00938195  00000-0 -62001-1 0  9994,2 54052  53.2169 205.4627 0001472  75.3155 109.8354 15.09898911  1305,6914.646,95.371,537.528,535.493,0.0
54052.0,STARLINK-5189,PAYLOAD,2023-03-05 14:00:01,15.08843102,0.000138,53.2173,202.4677,80.3007,129.0529,-0.0017566,-0.00028138,0.0,0 STARLINK-5189,1 54052U 22136B   23064.58334491 -.00028138  00000-0 -17566-2 0  9993,2 54052  53.2173 202.4677 0001380  80.3007 129.0529 15.08843102  1301,6917.871,95.437,540.691,538.781,0.0
54052.0,STARLINK-5189,PAYLOAD,2023-03-05 16:00:00,15.08832742,0.0001411,53.2173,202.094,77.3285,224.9251,-0.00070644,-0.00011511,0.0,0 STARLINK-5189,1 54052U 22136B   23064.66667824 -.00011511  00000-0 -70644-3 0  9995,2 54052  53.2173 202.0940 0001411  77.3285 224.9251 15.08832742 21823,6917.903,95.438,540.744,538.791,0.0
54052.0,STARLINK-5189,PAYLOAD,2023-03-05 22:00:00,15.08811415,0.0001299,53.217,200.9718,62.0161,158.9027,0.0025866,0.00041086,0.0,0 STARLINK-5189,1 54052U 22136B   23064.91667824  .00041086  00000-0  25866-2 0  9996,2 54052  53.2170 200.9718 0001299  62.0161 158.9027 15.08811415  1300,6917.968,95.439,540.731,538.934,0.0
54052.0,STARLINK-5189,PAYLOAD,2023-03-06 08:00:01,15.08845442,0.0001176,53.2173,199.0999,75.0066,250.4026,0.0051529,0.00082696,0.0,0 STARLINK-5189,1 54052U 22136B   23065.33334491  .00082696  00000-0  51529-2 0  9991,2 54052  53.2173 199.0999 0001176  75.0066 250.4026 15.08845442 21928,6917.864,95.437,540.542,538.915,0.0
54052.0,STARLINK-5189,PAYLOAD,2023-03-06 22:00:00,15.08797429,8.2e-05,53.2169,196.4828,79.4699,176.3094,0.00023126,3.391e-05,0.0,0 STARLINK-5189,1 54052U 22136B   23065.91667824  .00003391  00000-0  23126-3 0  9992,2 54052  53.2169 196.4828 0000820  79.4699 176.3094 15.08797429 22013,6918.011,95.44,540.443,539.308,0.0
54052.0,STARLINK-5189,PAYLOAD,2023-03-07 22:00:00,15.08795528,7.99e-05,53.2169,191.9941,101.7228,188.787,0.002337,0.00037056,0.0,0 STARLINK-5189,1 54052U 22136B   23066.91667824  .00037056  00000-0  23370-2 0  9998,2 54052  53.2169 191.9941 0000799 101.7228 188.7870 15.08795528  1307,6918.016,95.44,540.434,539.329,0.0
54052.0,STARLINK-5189,PAYLOAD,2023-03-08 06:00:00,15.08797918,8.81e-05,53.217,190.4964,110.9195,191.1478,0.0061968,0.00099616,0.0,0 STARLINK-5189,1 54052U 22136B   23067.25001157  .00099616  00000-0  61968-2 0  9992,2 54052  53.2170 190.4964 0000881 110.9195 191.1478 15.08797918 22215,6918.009,95.44,540.483,539.265,0.0
54052.0,STARLINK-5189,PAYLOAD,2023-03-08 16:00:00,15.08873756,9.02e-05,53.2172,188.628,74.8173,331.7459,-0.0065824,-0.00103635,0.0,0 STARLINK-5189,1 54052U 22136B   23067.66667824 -.00103635  00000-0 -65824-2 0  9990,2 54052  53.2172 188.6280 0000902  74.8173 331.7459 15.08873756 22277,6917.777,95.435,540.266,539.018,0.0
54052.0,STARLINK-5189,PAYLOAD,2023-03-08 22:00:00,15.08804141,9.27e-05,53.217,187.5053,57.3231,267.9409,0.0019074,0.00030169,0.0,0 STARLINK-5189,1 54052U 22136B   23067.91667824  .00030169  00000-0  19074-2 0  9993,2 54052  53.2170 187.5053 0000927  57.3231 267.9409 15.08804141  1307,6917.99,95.44,540.496,539.214,0.0
54052.0,STARLINK-5189,PAYLOAD,2023-03-09 01:20:03,15.08739414,0.0001612,53.213,186.8839,105.4879,254.6291,0.0011937,0.00018709,0.0,0 STARLINK-5189,1 54052U 22136B   23068.05559721  .00018709  00000-0  11937-2 0  9991,2 54052  53.2130 186.8839 0001612 105.4879 254.6291 15.08739414 22330,6918.188,95.444,541.168,538.938,0.0
54052.0,STARLINK-5189,PAYLOAD,2023-03-09 17:13:49,15.08875295,9.6e-05,53.2191,183.9071,140.1147,219.9916,0.00021275,3.103e-05,0.0,0 STARLINK-5189,1 54052U 22136B   23068.71793594  .00003103  00000-0  21275-3 0  9991,2 54052  53.2191 183.9071 0000960 140.1147 219.9916 15.08875295 22439,6917.773,95.435,540.302,538.973,0.0
54052.0,STARLINK-5189,PAYLOAD,2023-03-10 01:10:47,15.0883869,6.53e-05,53.2197,182.4198,114.5697,245.5363,7.2178e-05,8.61e-06,0.0,0 STARLINK-5189,1 54052U 22136B   23069.04916133  .00000861  00000-0  72178-4 0  9991,2 54052  53.2197 182.4198 0000653 114.5697 245.5363 15.08838690 22487,6917.884,95.438,540.201,539.298,0.0
54052.0,STARLINK-5189,PAYLOAD,2023-03-10 13:53:52,15.08838136,6.58e-05,53.2203,180.0406,109.6733,250.433,0.00019251,2.777e-05,0.0,0 STARLINK-5189,1 54052U 22136B   23069.57908044  .00002777  00000-0  19251-3 0  9991,2 54052  53.2203 180.0406 0000658 109.6733 250.4330 15.08838136 22082,6917.886,95.438,540.206,539.296,0.0
54052.0,STARLINK-5189,PAYLOAD,2023-03-11 08:58:32,15.08820163,6.53e-05,53.2204,176.4742,97.57,262.5367,-0.00020532,-3.552e-05,0.0,0 STARLINK-5189,1 54052U 22136B   23070.37398859 -.00003552  00000-0 -20532-3 0  9996,2 54052  53.2204 176.4742 0000653  97.5700 262.5367 15.08820163 22680,6917.941,95.439,540.258,539.354,0.0
54052.0,STARLINK-5189,PAYLOAD,2023-03-11 10:33:55,15.08823428,0.0001188,53.218,176.1752,107.5165,252.5957,-0.00017554,-3.079e-05,0.0,0 STARLINK-5189,1 54052U 22136B   23070.44022676 -.00003079  00000-0 -17554-3 0  9999,2 54052  53.2180 176.1752 0001188 107.5165 252.5957 15.08823428 22212,6917.931,95.439,540.618,538.974,0.0
54052.0,STARLINK-5189,PAYLOAD,2023-03-11 16:55:27,15.08845899,0.0001007,53.2192,174.9868,125.7369,234.3717,-0.00026393,-4.486e-05,0.0,0 STARLINK-5189,1 54052U 22136B   23070.70517660 -.00004486  00000-0 -26393-3 0  9994,2 54052  53.2192 174.9868 0001007 125.7369 234.3717 15.08845899 22732,6917.862,95.437,540.424,539.031,0.0
54052.0,STARLINK-5189,PAYLOAD,2023-03-12 08:49:19,15.08823202,0.0001391,53.22,172.0161,106.5376,253.5769,-3.4182e-05,-8.32e-06,0.0,0 STARLINK-5189,1 54052U 22136B   23071.36758859 -.00000832  00000-0 -34182-4 0  9991,2 54052  53.2200 172.0161 0001391 106.5376 253.5769 15.08823202 22833,6917.932,95.439,540.759,538.834,0.0
54052.0,STARLINK-5189,PAYLOAD,2023-03-12 12:00:05,15.08835449,0.0001763,53.2185,171.4179,117.6921,242.425,2.5015e-05,1.1e-06,0.0,0 STARLINK-5189,1 54052U 22136B   23071.50006000  .00000110  00000-0  25015-4 0  9993,2 54052  53.2185 171.4179 0001763 117.6921 242.4250 15.08835449 22859,6917.894,95.438,540.979,538.54,0.0
54052.0,STARLINK-5189,PAYLOAD,2023-03-14 05:20:07,15.08835256,0.0001406,53.2182,163.6866,108.9083,251.2062,0.0001008,1.316e-05,0.0,0 STARLINK-5189,1 54052U 22136B   23073.22230392  .00001316  00000-0  10080-3 0  9991,2 54052  53.2182 163.6866 0001406 108.9083 251.2062 15.08835256 23113,6917.895,95.438,540.733,538.787,0.0
